37192,GLOBALSTAR M075,2010,114.08,700.0,+,51.99,Active,1,LEO,Kazakhstan,Globalstar,Commercial,Communications,Soyuz,1 37192U 10054E   24074.59899565 -.00000075  00000+0  16245-3 0  9998,2 37192  51.9936 140.8840 0000450 104.0935  43.4896 12.62271661617960,12.62271661,4.5e-05,LEO
37193,GLOBALSTAR M073,2010,114.08,700.0,+,52.01,Active,1,LEO,Kazakhstan,Globalstar,Commercial,Communications,Soyuz,1 37193U 10054F   24074.36116914 -.00000109  00000+0 -30968-4 0  9992,2 37193  52.0065  55.0710 0000480  82.2052  65.4411 12.62262500619768,12.622625,4.8e-05,LEO
37740,GLOBALSTAR M088,2011,114.08,700.0,+,51.97,Active,1,LEO,Kazakhstan,Globalstar,Commercial,Communications,Soyuz,1 37740U 11033B   24074.56062786 -.00000092  00000+0  66218-4 0  9994,2 37740  51.9715 269.7056 0000707  75.1468 319.7633 12.62266025584350,12.62266025,7.07e-05,LEO
37741,GLOBALSTAR M091,2011,114.08,700.0,+,52.0,Active,1,LEO,Kazakhstan,Globalstar,Commercial,Communications,Soyuz,1 37741U 11033C   24074.91986005 -.00000084  00000+0  10967-3 0  9993,2 37741  51.9976 231.3423 0000617  80.9301  87.3775 12.62272390585182,12.6227239,6.17e-05,LEO
37743,GLOBALSTAR M081,2011,114.08,700.0,+,51.99,Active,1,LEO,Kazakhstan,Globalstar,Commercial,Communications,Soyuz,1 37743U 11033E   24074.51795390 -.00000080  00000+0  13138-3 0  9995,2 37743  51.9948 186.5151 0000623  82.3489 358.5222 12.62270479585795,12.62270479,6.23e-05,LEO
37744,GLOBALSTAR M089,2011,114.08,700.0,+,51.99,Active,1,LEO,Kazakhstan,Globalstar,Commercial,Communications,Soyuz,1 37744U 11033F   24075.09503550 -.00000086  00000+0  96451-4 0  9991,2 37744  51.9921 139.0747 0000919 103.7356 259.7899 12.62272232586961,12.62272232,9.19e-05,LEO
